{
  "type": "FeatureCollection",
  "features": [
    {
      "type": "Feature",
      "properties": {
        "norad_id": 34492,
        "name": "IRIDIUM 33 DEB",
        "group": "iridium-33-debris",
        "lat": -24.723946566253836,
        "lon": 160.23589550565148,
        "alt_km": 754.3171144386524,
        "timestamp": "2025-12-02T21:34:01.655930+00:00",
        "meta_object_name": "IRIDIUM 33 DEB",
        "meta_object_id": "1997-051GH",
        "meta_epoch": "2025-12-02T11:12:49.891104",
        "meta_mean_motion": 14.2523388,
        "meta_eccentricity": 0.0190428,
        "meta_inclination": 86.4708,
        "meta_ra_of_asc_node": 338.7817,
        "meta_arg_of_pericenter": 271.515,
        "meta_mean_anomaly": 243.1192,
        "meta_ephemeris_type": 0,
        "meta_classification_type": "U",
        "meta_norad_cat_id": 34492,
        "meta_element_set_no": 999,
        "meta_rev_at_epoch": 84912,
        "meta_bstar": 0.0077483,
        "meta_mean_motion_dot": 0.00022079,
        "meta_mean_motion_ddot": 0,
        "tle_line1": "1 34492U 97051GH  25336.46724411  .00022079  00000+0  77483-2 0  9992",
        "tle_line2": "2 34492  86.4708 338.7817 0190428 271.5150 243.1192 14.25233880849121"
      },
      "geometry": {
        "type": "Point",
        "coordinates": [
          160.23589550565148,
          -24.723946566253836
        ]
      }
    },
    {
      "type": "Feature",
      "properties": {
        "norad_id": 34497,
        "name": "IRIDIUM 33 DEB",
        "group": "iridium-33-debris",
        "lat": 17.050383306405397,
        "lon": 57.74881116195822,
        "alt_km": 743.7833184955734,
        "timestamp": "2025-12-02T21:34:01.655941+00:00",
        "meta_object_name": "IRIDIUM 33 DEB",
        "meta_object_id": "1997-051GN",
        "meta_epoch": "2025-12-01T05:14:48.727392",
        "meta_mean_motion": 14.27398963,
        "meta_eccentricity": 0.0080081,
        "meta_inclination": 86.2784,
        "meta_ra_of_asc_node": 57.3223,
        "meta_arg_of_pericenter": 16.9295,
        "meta_mean_anomaly": 12.6117,
        "meta_ephemeris_type": 0,
        "meta_classification_type": "U",
        "meta_norad_cat_id": 34497,
        "meta_element_set_no": 999,
        "meta_rev_at_epoch": 86719,
        "meta_bstar": 0.00069242,
        "meta_mean_motion_dot": 1.774e-05,
        "meta_mean_motion_ddot": 0,
        "tle_line1": "1 34497U 97051GN  25335.21861953  .00001774  00000+0  69242-3 0  9996",
        "tle_line2": "2 34497  86.2784  57.3223 0080081  16.9295  12.6117 14.27398963867196"
      },
      "geometry": {
        "type": "Point",
        "coordinates": [
          57.74881116195822,
          17.050383306405397
        ]
      }
    },
    {
      "type": "Feature",
      "properties": {
        "norad_id": 34508,
        "name": "IRIDIUM 33 DEB",
        "group": "iridium-33-debris",
        "lat": 31.722223499060306,
        "lon": -75.4354571695841,
        "alt_km": 736.7318054209081,
        "timestamp": "2025-12-02T21:34:01.655951+00:00",
        "meta_object_name": "IRIDIUM 33 DEB",
        "meta_object_id": "1997-051GZ",
        "meta_epoch": "2025-12-02T09:11:17.146176",
        "meta_mean_motion": 14.38260142,
        "meta_eccentricity": 0.0065409,
        "meta_inclination": 86.3694,
        "meta_ra_of_asc_node": 107.0325,
        "meta_arg_of_pericenter": 206.6433,
        "meta_mean_anomaly": 153.14,
        "meta_ephemeris_type": 0,
        "meta_classification_type": "U",
        "meta_norad_cat_id": 34508,
        "meta_element_set_no": 999,
        "meta_rev_at_epoch": 87160,
        "meta_bstar": 0.0021431,
        "meta_mean_motion_dot": 6.698e-05,
        "meta_mean_motion_ddot": 0,
        "tle_line1": "1 34508U 97051GZ  25336.38283734  .00006698  00000+0  21431-2 0  9990",
        "tle_line2": "2 34508  86.3694 107.0325 0065409 206.6433 153.1400 14.38260142871601"
      },
      "geometry": {
        "type": "Point",
        "coordinates": [
          -75.4354571695841,
          31.722223499060306
        ]
      }
    },
    {
      "type": "Feature",
      "properties": {
        "norad_id": 34521,
        "name": "IRIDIUM 33 DEB",
        "group": "iridium-33-debris",
        "lat": 15.72492778582493,
        "lon": -146.14105228271367,
        "alt_km": 684.2901187564075,
        "timestamp": "2025-12-02T21:34:01.655961+00:00",
        "meta_object_name": "IRIDIUM 33 DEB",
        "meta_object_id": "1997-051HN",
        "meta_epoch": "2025-12-02T04:24:22.923360",
        "meta_mean_motion": 14.63207931,
        "meta_eccentricity": 0.00012454,
        "meta_inclination": 86.3815,
        "meta_ra_of_asc_node": 35.1943,
        "meta_arg_of_pericenter": 303.8096,
        "meta_mean_anomaly": 56.2997,
        "meta_ephemeris_type": 0,
        "meta_classification_type": "U",
        "meta_norad_cat_id": 34521,
        "meta_element_set_no": 999,
        "meta_rev_at_epoch": 88318,
        "meta_bstar": 0.0011053606,
        "meta_mean_motion_dot": 5.711e-05,
        "meta_mean_motion_ddot": 0,
        "tle_line1": "1 34521U 97051HN  25336.18359865  .00005711  00000+0  11054-2 0  9997",
        "tle_line2": "2 34521  86.3815  35.1943 0001245 303.8096  56.2997 14.63207931883186"
      },
      "geometry": {
        "type": "Point",
        "coordinates": [
          -146.14105228271367,
          15.72492778582493
        ]
      }
    },
    {
      "type": "Feature",
      "properties": {
        "norad_id": 34525,
        "name": "IRIDIUM 33 DEB",
        "group": "iridium-33-debris",
        "lat": -14.927233056590001,
        "lon": 50.074824758827766,
        "alt_km": 756.9087299804942,
        "timestamp": "2025-12-02T21:34:01.655971+00:00",
        "meta_object_name": "IRIDIUM 33 DEB",
        "meta_object_id": "1997-051HS",
        "meta_epoch": "2025-12-02T11:44:07.375200",
        "meta_mean_motion": 14.42863202,
        "meta_eccentricity": 0.0006432,
        "meta_inclination": 86.3736,
        "meta_ra_of_asc_node": 51.2183,
        "meta_arg_of_pericenter": 118.6369,
        "meta_mean_anomaly": 260.0538,
        "meta_ephemeris_type": 0,
        "meta_classification_type": "U",
        "meta_norad_cat_id": 34525,
        "meta_element_set_no": 999,
        "meta_rev_at_epoch": 87940,
        "meta_bstar": 0.00052517,
        "meta_mean_motion_dot": 1.772e-05,
        "meta_mean_motion_ddot": 0,
        "tle_line1": "1 34525U 97051HS  25336.48897425  .00001772  00000+0  52517-3 0  9996",
        "tle_line2": "2 34525  86.3736  51.2183 0006432 118.6369 260.0538 14.42863202879407"
      },
      "geometry": {
        "type": "Point",
        "coordinates": [
          50.074824758827766,
          -14.927233056590001
        ]
      }
    },
    {
      "type": "Feature",
      "properties": {
        "norad_id": 34529,
        "name": "IRIDIUM 33 DEB",
        "group": "iridium-33-debris",
        "lat": -39.412637472315424,
        "lon": 36.612024104744,
        "alt_km": 763.8392323119197,
        "timestamp": "2025-12-02T21:34:01.655981+00:00",
        "meta_object_name": "IRIDIUM 33 DEB",
        "meta_object_id": "1997-051HW",
        "meta_epoch": "2025-12-02T10:04:51.750624",
        "meta_mean_motion": 14.40602398,
        "meta_eccentricity": 0.0003582,
        "meta_inclination": 86.365,
        "meta_ra_of_asc_node": 39.8104,
        "meta_arg_of_pericenter": 214.776,
        "meta_mean_anomaly": 145.3205,
        "meta_ephemeris_type": 0,
        "meta_classification_type": "U",
        "meta_norad_cat_id": 34529,
        "meta_element_set_no": 999,
        "meta_rev_at_epoch": 87993,
        "meta_bstar": 0.00017051,
        "meta_mean_motion_dot": 5.63e-06,
        "meta_mean_motion_ddot": 0,
        "tle_line1": "1 34529U 97051HW  25336.42004341  .00000563  00000+0  17051-3 0  9992",
        "tle_line2": "2 34529  86.3650  39.8104 0003582 214.7760 145.3205 14.40602398879936"
      },
      "geometry": {
        "type": "Point",
        "coordinates": [
          36.612024104744,
          -39.412637472315424
        ]
      }
    },
    {
      "type": "Feature",
      "properties": {
        "norad_id": 34538,
        "name": "IRIDIUM 33 DEB",
        "group": "iridium-33-debris",
        "lat": 85.51248946757157,
        "lon": 65.89436788367121,
        "alt_km": 741.0348099384946,
        "timestamp": "2025-12-02T21:34:01.655991+00:00",
        "meta_object_name": "IRIDIUM 33 DEB",
        "meta_object_id": "1997-051JF",
        "meta_epoch": "2025-12-02T03:08:34.535328",
        "meta_mean_motion": 14.42546376,
        "meta_eccentricity": 0.00341464,
        "meta_inclination": 86.2785,
        "meta_ra_of_asc_node": 10.2023,
        "meta_arg_of_pericenter": 3.5659,
        "meta_mean_anomaly": 59.4066,
        "meta_ephemeris_type": 0,
        "meta_classification_type": "U",
        "meta_norad_cat_id": 34538,
        "meta_element_set_no": 999,
        "meta_rev_at_epoch": 87603,
        "meta_bstar": 0.0010217292,
        "meta_mean_motion_dot": 3.431e-05,
        "meta_mean_motion_ddot": 0,
        "tle_line1": "1 34538U 97051JF  25336.13095527  .00003431  00000+0  10217-2 0  9999",
        "tle_line2": "2 34538  86.2785  10.2023 0034146   3.5659  59.4066 14.42546376876031"
      },
      "geometry": {
        "type": "Point",
        "coordinates": [
          65.89436788367121,
          85.51248946757157
        ]
      }
    }
  ]
}